SUOMI-100               
1 43804U 18099AY  26068.68271181  .00014037  00000+0  54773-3 0  9995
2 43804  97.4315 129.5602 0008969 269.9465  90.0745 15.25995383398238
STARLINK-33969          
1 63855U 25093V   26068.43316733  .00022490  00000+0  82373-3 0  9990
2 63855  43.0041  79.2681 0003118 285.4479  74.6028 15.27600671 47717
